KUIPER-00061            
1 64521U 25134X   25215.00340213  .00024122  00000+0  69117-3 0  9998
2 64521  51.8724 135.4959 0004904 255.5264 104.5177 15.35771712  7011
KUIPER-00062            
1 64522U 25134Y   25215.58335648 -.01119122  00000+0 -41904-1 0  9998
2 64522  51.8756 132.8539 0006108 237.3402  29.3755 15.29726362  7090
KUIPER-00063            
1 64523U 25134Z   25215.25002315 -.00925839  00000+0 -29604-1 0  9997
2 64523  51.8757 134.0853 0002692 210.1484 183.1543 15.34681504  7052
KUIPER-00064            
1 64524U 25134AA  25215.58335648 -.00927049  00000+0 -28090-1 0  9995
2 64524  51.8777 132.2838 0000675  91.4878  83.6149 15.36368162  7403
KUIPER-00065            
1 64525U 25134AB  25215.58335648 -.01020794  00000+0 -40829-1 0  9992
2 64525  51.8745 133.1291 0007840 257.7764 194.3336 15.27304098  7332
KUIPER-00066            
1 64526U 25134AC  25215.36256016 -.00141102  00000+0 -39365-2 0  9990
2 64526  51.8775 133.4136 0001027 216.7860 143.3057 15.36710692  7076
KUIPER-00069            
1 64816U 25151A   25215.16296038  .00024958  00000+0  71468-3 0  9995
2 64816  51.8782 201.3077 0005135 199.7270 160.3518 15.35770524  3924
KUIPER-00070            
1 64817U 25151B   25215.50002315 -.00519857  00000+0 -19044-1 0  9996
2 64817  51.8785 199.9305 0005429 230.5576  82.1358 15.29716352  3962
